ALOUETTE 1 (S-27)       
1 00424U 62049A   12278.24834802  .00000134  00000-0  14494-3 0    86
2 00424  80.4662 164.3569 0022521 179.1752 180.9435 13.68839497496553
IUE                     
1 10637U 78012A   12278.20342967 -.00000259  00000-0  00000+0 0  8252
2 10637  43.9162 359.4044 1484900 176.7908 184.2889  1.00057309 79514
IRAS                    
1 13777U 83004A   12279.13173001  .00000041  00000-0  57257-4 0   139
2 13777  99.0201 113.6233 0021712 125.8420 234.4761 14.00196201186356
AKEBONO (EXOS-D)        
1 19822U 89016A   12278.57299959  .00034770  24867-6  91872-3 0  3416
2 19822  75.0620 291.7080 2465226 355.9175   2.4485 10.49690355718138
INTERCOSMOS 24          
1 20261U 89080A   12278.77035199  .00001065  00000-0  31076-3 0  8774
2 20261  82.5877  40.7833 1212756  90.2405 283.7365 12.54158654 50649
COBE                    
1 20322U 89089A   12279.12871012 -.00000218  00000-0 -10865-3 0  8676
2 20322  99.0036 285.7994 0009183  11.9266 348.2110 14.04512904172445
HST                     
1 20580U 90037B   12278.04747098  .00002994  00000-0  20570-3 0   827
2 20580  28.4689 150.9861 0003504 140.6891 219.3878 15.02858790 31125
CRRES                   
1 20712U 90065A   12277.07124528  .00000665  00000-0  11234-2 0  5097
2 20712  18.0818 289.3232 7126560 278.5268  13.1022  2.43641453186369
SARA                    
1 21578U 91050E   12278.91504729  .00001262  00000-0  32712-3 0  5541
2 21578  98.3843 249.6880 0004122  72.1796 287.9848 14.51473352119246
SAMPEX                  
1 22012U 92038A   12279.24212460  .00249001  21618-4  77680-3 0   733
2 22012  81.6263 347.1357 0014741 281.0838  78.8767 15.91268695121102
ORBVIEW 1 (MICROLAB)    
1 23547U 95017C   12278.22894785  .00001500  00000-0  35022-3 0  9922
2 23547  69.9758 241.9668 0012283 325.8078  34.2266 14.56634160928000
RXTE (XTE)              
1 23757U 95074A   12277.76428875  .00008562  00000-0  22660-3 0  7386
2 23757  22.9869  55.5850 0006560  31.2367 328.8468 15.35373491930494
POLAR                   
1 23802U 96013A   12278.24778946  .00000012  00000-0  10000-3 0  3127
2 23802  81.7496 307.7486 6620364  32.9862 354.9431  1.29844606 79885
FAST                    
1 24285U 96049A   12278.61160486  .00008191  00000-0  70447-3 0  5867
2 24285  82.9696 169.8971 1964287  24.5918 343.7185 11.33786936654564
TRACE                   
1 25280U 98020A   12278.65278508  .00004641  00000-0  35614-3 0  3066
2 25280  97.5929 119.0679 0028147 138.9953 221.3392 15.01956785791739
SAFIR 2                 
1 25399U 98043F   12279.00817530  .00000043  00000-0  36460-4 0  3261
2 25399  98.3414 259.0024 0000742 249.2322 110.8785 14.24121180739966
SWAS                    
1 25560U 98071A   12279.22177151  .00001481  00000-0  16791-3 0   161
2 25560  69.8954 241.6664 0011446 247.6987 112.2955 14.88581005749701
ASTRID 2                
1 25568U 98072B   12279.21458767  .00000194  00000-0  19642-3 0  1107
2 25568  82.9514 171.3202 0024259 310.9588  48.9464 13.72157309692043
ORSTED                  
1 25635U 99008B   12278.83094688  .00000843  00000-0  21526-3 0  6297
2 25635  96.4778 200.0417 0141212 316.6481  42.3627 14.46468673717972
SUNSAT (SO-35)          
1 25636U 99008C   12278.22544010  .00000538  00000-0  14633-3 0  3200
2 25636  96.4815 189.3525 0148085   6.5729 353.7366 14.43812393716954
ABRIXAS                 
1 25721U 99022A   12278.20342362  .00008178  00000-0  31574-3 0  5185
2 25721  48.4638 320.9775 0018933 312.9122  47.0224 15.26858251744040
TERRIERS                
1 25735U 99026A   12278.74774142  .00004717  00000-0  17517-3 0  7018
2 25735  97.0863 112.2292 0008008  97.7223 262.4923 15.27985987742633
FUSE 1                  
1 25791U 99035A   12278.79084638  .00000505  00000-0  97211-4 0  3555
2 25791  24.9843 136.0351 0010034 341.1474  18.8654 14.42067301700587
CXO                     
1 25867U 99040B   12277.37615382 -.00000051  00000-0  00000+0 0  7987
2 25867  73.4633 356.9172 8725651 278.1461   0.3618  0.37803579  9562
CLEMENTINE              
1 25978U 99064B   12278.90394030  .00003528  00000-0  39022-3 0  7307
2 25978  98.1298  33.0730 0010089 153.9545 206.2178 14.88016700695007
XMM-NEWTON              
1 25989U 99066A   12277.58919074  .00000207  00000-0  00000-0 0    18
2 25989  63.5302  75.9047 6953048  96.2053   0.5563  0.50131092 12267
TERRA                   
1 25994U 99068A   12279.15292979  .00000440  00000-0  10765-3 0  4430
2 25994  98.1971 351.6092 0001019  94.4084 265.7233 14.57136944680772
ACRIMSAT                
1 26033U 99070B   12278.57527194  .00000318  00000-0  73511-4 0  6685
2 26033  97.8199 120.5977 0028863   5.3012 354.8469 14.60965607681512
IMAGE                   
1 26113U 00017A   12275.37473738 -.00000151  00000-0  10000-3 0  2704
2 26113  93.1603 227.2306 7633425 144.3007 306.0917  1.68639088 77096
CLUSTER II-FM6 (SALSA)  
1 26410U 00041A   12277.84109228  .00002486  00000-0  00000-0 0    15
2 26410 139.1173 295.3685 8128419 110.5176   0.8910  0.44222132  9896
CLUSTER II-FM7 (SAMBA)  
1 26411U 00041B   12277.90396636  .00002486  00000-0  00000-0 0  8584
2 26411 138.9408 295.4002 8131988 110.5613   0.8357  0.44146546  9989
CLUSTER II-FM5 (RUMBA)  
1 26463U 00045A   12277.86286542  .00002645  00000-0  00000-0 0  8525
2 26463 141.9098 291.7418 8067670 108.0023   0.8094  0.44222476 10480
CLUSTER II-FM8 (TANGO)  
1 26464U 00045B   12277.85397502  .00003025  00000-0  00000+0 0  8425
2 26464 140.1551 293.2393 8529123 110.1749   0.8770  0.44222513  9874
MEGSAT-1                
1 26546U 00057B   12279.19607750  .00001560  00000-0  19229-3 0  7111
2 26546  64.5535 290.2222 0048305 278.9752  80.5889 14.85874687651235
HETE-2                  
1 26561U 00061A   12277.56391754  .00004898  00000-0  32647-3 0  7998
2 26561   1.9483 303.9452 0021372 186.3373 173.6431 14.98820558655886
MUNIN                   
1 26621U 00075C   12278.85556898 -.00000564  00000-0 -50242-3 0  4867
2 26621  95.4068  75.2604 0715612 174.2693 186.7203 13.03858958564810
ODIN                    
1 26702U 01007A   12279.03411246  .00002261  00000-0  19461-3 0  7529
2 26702  97.6458 291.9754 0004144  42.2720 317.8758 14.98346529633805
TIMED                   
1 26998U 01055B   12278.96994190  .00001081  00000-0  13053-3 0  3036
2 26998  74.0714 124.0684 0002020 249.5289 110.5658 14.85133638586431
RHESSI                  
1 27370U 02004A   12279.19106616  .00005870  00000-0  38926-3 0  9515
2 27370  38.0401 269.1198 0014326 339.9555  20.0635 15.07134927585337
INTEGRAL                
1 27540U 02048A   12277.45833333 -.00000114  00000-0  00000-0 0  2061
2 27540  65.1158 278.9803 8840796 251.4619 353.8169  0.33417706  8322
FEDSAT                  
1 27598U 02056B   12278.58145435  .00000095  00000-0  54701-4 0  7868
2 27598  98.2570 286.5719 0008219 277.3086  82.7157 14.28183046511289
WEOS                    
1 27599U 02056C   12278.07616209  .00000236  00000-0  10986-3 0  7868
2 27599  98.2530 294.6614 0009144 289.5699  70.4500 14.28795471511404
MICRO LABSAT            
1 27600U 02056D   12278.62847145  .00000142  00000-0  72320-4 0  7550
2 27600  98.2501 294.4168 0010086 287.9996  72.0073 14.29060232511590
CORIOLIS                
1 27640U 03001A   12279.11280546  .00000088  00000-0  63635-4 0  9950
2 27640  98.7563 284.4106 0013863 191.5775 168.5045 14.18539034504613
CHIPSAT                 
1 27643U 03002B   12278.76278572  .00003926  00000-0  31822-3 0  1790
2 27643  94.0196 210.2523 0013609 104.1635 256.1057 14.99785866531443
SORCE                   
1 27651U 03004A   12279.01326439  .00002011  00000-0  25272-3 0  9127
2 27651  39.9953 136.4432 0023612  97.9857 262.3488 14.83877499525312
GALEX                   
1 27783U 03017A   12278.70866211  .00000972  00000-0  17584-3 0  6071
2 27783  28.9984 119.8877 0003874  60.4237 299.6717 14.60450660504118
MOST                    
1 27843U 03031D   12279.10129102  .00000164  00000-0  97115-4 0  4834
2 27843  98.7188 284.6457 0009153 281.1473  78.8666 14.20261834480348
QUAKESAT                
1 27845U 03031F   12278.56543400  .00000613  00000-0  30408-3 0  5219
2 27845  98.7152 285.2588 0008358 293.3409  66.6886 14.20826393480293
AAU CUBESAT             
1 27846U 03031G   12277.98208503  .00000274  00000-0  14565-3 0  3966
2 27846  98.6965 285.1383 0008514 248.2732 111.7557 14.21334928480464
SCISAT 1                
1 27858U 03036A   12278.67299883  .00000628  00000-0  97424-4 0  7482
2 27858  73.9348 331.3645 0007553 114.6304 245.5657 14.75455778492451
STSAT-1                 
1 27945U 03042G   12278.55473599  .00000430  00000-0  91439-4 0  6830
2 27945  97.8007 114.2750 0011415 291.3651  68.6324 14.63558435481858
GP-B                    
1 28230U 04014A   12278.20988913  .00000914  00000-0  12853-3 0  5457
2 28230  89.9115 147.6211 0002755  94.0937 266.0590 14.76699677455546
DEMETER                 
1 28368U 04025C   12279.20112373  .00001045  00000-0  17544-3 0  3211
2 28368  97.8496 327.2792 0001961  65.5646 294.5764 14.71654319442988
DOUBLESTAR TC-2         
1 28382U 04029A   12278.73459808 -.00000301  00000-0  00000+0 0  1415
2 28382  88.7346 323.0605 7215900  68.5062 350.5070  2.15596152 63411
SWIFT                   
1 28485U 04047A   12279.09698101  .00003594  00000-0  28112-3 0  2673
2 28485  20.5551 185.5284 0013485 279.7672  80.1169 14.95266854430171
SUZAKU (ASTRO-EII)      
1 28773U 05025A   12279.15530954  .00003501  00000-0  24124-3 0  8592
2 28773  31.3840 177.4964 0006746 181.4849 178.5776 15.04130548397656
AKARI (ASTRO-F)         
1 28939U 06005A   12279.12428695  .00005087  00000-0  28386-3 0    92
2 28939  98.2663 310.8437 0174643 267.1639  90.9395 15.01971975353159
FORMOSAT-3 FM6          
1 29047U 06011A   12278.96432785  .00000535  00000-0  23095-3 0  9180
2 29047  71.9775  86.4761 0052685 230.1510 129.4962 14.27523199339764
FORMOSAT-3 FM1          
1 29048U 06011B   12278.62667145  .00000393  00000-0  17471-3 0  9985
2 29048  71.9718   1.2132 0045252 184.3993 175.6740 14.27529871342197
